GLOBALSTAR M094         
1 39074U 13005C   24154.48945336 -.00000103  00000+0  53625-5 0  9990
2 39074  51.9961 258.1852 0000816 138.1379 221.9550 12.62266424524442
GLOBALSTAR M096         
1 39075U 13005D   24154.58177061 -.00000090  00000+0  76816-4 0  9995
2 39075  52.0086 306.1215 0001127 119.1624 240.9356 12.62266259523358
GLOBALSTAR M078         
1 39076U 13005E   24154.79328634 -.00000104  00000+0 -14876-5 0  9999
2 39076  51.9894  30.5057 0001696  66.5300 293.5745 12.62276576522003
GLOBALSTAR M095         
1 39077U 13005F   24154.81902838 -.00000092  00000+0  68467-4 0  9996
2 39077  51.9820  27.8074 0001426  87.5283 272.5746 12.62263429521869
GLOBALSTAR M087         
1 52888U 22064A   24154.46313361 -.00000099  00000+0  55025-4 0  9997
2 52888  51.9760 259.7239 0008873 329.2014  30.8365 13.37575489 95556
